[{"OBJECT_NAME":"STARLINK-30429","OBJECT_ID":"2023-144N","EPOCH":"2026-03-09T00:24:54.111744","MEAN_MOTION":15.26759403,"ECCENTRICITY":0.00012155,"INCLINATION":43.0056,"RA_OF_ASC_NODE":289.0794,"ARG_OF_PERICENTER":320.7626,"MEAN_ANOMALY":39.3137,"EPHEMERIS_TYPE":0,"CLASSIFICATION_TYPE":"U","NORAD_CAT_ID":57876,"ELEMENT_SET_NO":999,"REV_AT_EPOCH":13753,"BSTAR":0.00018839136,"MEAN_MOTION_DOT":4.8e-5,"MEAN_MOTION_DDOT":0},{"OBJECT_NAME":"OBJECT F","OBJECT_ID":"2025-108F","EPOCH":"2026-03-09T23:20:53.522880","MEAN_MOTION":15.23792837,"ECCENTRICITY":0.00112374,"INCLINATION":97.4753,"RA_OF_ASC_NODE":146.7616,"ARG_OF_PERICENTER":356.2264,"MEAN_ANOMALY":3.8886,"EPHEMERIS_TYPE":0,"CLASSIFICATION_TYPE":"U","NORAD_CAT_ID":64092,"ELEMENT_SET_NO":999,"REV_AT_EPOCH":4437,"BSTAR":0.0010326251,"MEAN_MOTION_DOT":0.00024889,"MEAN_MOTION_DDOT":0}]
